NORAD_CAT_ID,OBJECT_NAME,OBJECT_TYPE,EPOCH,MEAN_MOTION,ECCENTRICITY,INCLINATION,RA_OF_ASC_NODE,ARG_OF_PERICENTER,MEAN_ANOMALY,BSTAR,MEAN_MOTION_DOT,MEAN_MOTION_DDOT,TLE_LINE0,TLE_LINE1,TLE_LINE2,SEMIMAJOR_AXIS,PERIOD,APOGEE,PERIGEE,DECAYED
53534.0,STARLINK-4488,PAYLOAD,2024-08-20 22:31:19,15.08855195,0.0001421,53.2145,93.6079,85.2332,274.8823,0.00083733,0.00013069,0.0,0 STARLINK-4488,1 53534U 22101H   24233.93842108  .00013069  00000-0  83733-3 0  9991,2 53534  53.2145  93.6079 0001421  85.2332 274.8823 15.08855195110763,6917.834,95.437,540.682,538.716,0.0
53534.0,STARLINK-4488,PAYLOAD,2024-08-21 20:46:43,15.08842705,0.0001588,53.2153,89.4427,84.1064,276.0109,0.00042147,6.427e-05,0.0,0 STARLINK-4488,1 53534U 22101H   24234.86578597  .00006427  00000-0  42147-3 0  9996,2 53534  53.2153  89.4427 0001588  84.1064 276.0109 15.08842705110906,6917.872,95.437,540.836,538.639,0.0
